{"fetched_at":"2026-07-12T07:15:48.268Z","source":"https://celestrak.org/NORAD/elements/gp.php?NAME=LEGION&FORMAT=JSON","constellation":"maxar-legion","records":[{"OBJECT_NAME":"LEGION 1","OBJECT_ID":"2024-081A","EPOCH":"2026-07-11T21:36:56.808864","CLASSIFICATION_TYPE":"U","MEAN_MOTION":15.16830593,"ECCENTRICITY":0.00076922,"INCLINATION":97.5015,"RA_OF_ASC_NODE":270.4953,"ARG_OF_PERICENTER":283.4197,"MEAN_ANOMALY":76.6179,"EPHEMERIS_TYPE":0,"NORAD_CAT_ID":59625,"ELEMENT_SET_NO":999,"REV_AT_EPOCH":12128,"BSTAR":0.0001182248,"MEAN_MOTION_DOT":0.00002258,"MEAN_MOTION_DDOT":0},{"OBJECT_NAME":"LEGION 2","OBJECT_ID":"2024-081B","EPOCH":"2026-07-11T22:20:37.936896","CLASSIFICATION_TYPE":"U","MEAN_MOTION":15.16809597,"ECCENTRICITY":0.00100567,"INCLINATION":97.5014,"RA_OF_ASC_NODE":270.6221,"ARG_OF_PERICENTER":246.2581,"MEAN_ANOMALY":113.7598,"EPHEMERIS_TYPE":0,"NORAD_CAT_ID":59626,"ELEMENT_SET_NO":999,"REV_AT_EPOCH":12129,"BSTAR":0.00010312077,"MEAN_MOTION_DOT":0.00001961,"MEAN_MOTION_DDOT":0},{"OBJECT_NAME":"LEGION 3","OBJECT_ID":"2024-146A","EPOCH":"2026-07-11T15:29:39.703488","CLASSIFICATION_TYPE":"U","MEAN_MOTION":15.15641977,"ECCENTRICITY":0.0008526,"INCLINATION":45.0012,"RA_OF_ASC_NODE":259.4148,"ARG_OF_PERICENTER":315.193,"MEAN_ANOMALY":44.8259,"EPHEMERIS_TYPE":0,"NORAD_CAT_ID":60452,"ELEMENT_SET_NO":999,"REV_AT_EPOCH":10573,"BSTAR":0.00012016822,"MEAN_MOTION_DOT":0.00002061,"MEAN_MOTION_DDOT":0},{"OBJECT_NAME":"LEGION 4","OBJECT_ID":"2024-146B","EPOCH":"2026-07-11T21:49:01.373088","CLASSIFICATION_TYPE":"U","MEAN_MOTION":15.1566563,"ECCENTRICITY":0.00089387,"INCLINATION":45.0028,"RA_OF_ASC_NODE":349.8695,"ARG_OF_PERICENTER":92.8389,"MEAN_ANOMALY":267.3513,"EPHEMERIS_TYPE":0,"NORAD_CAT_ID":60453,"ELEMENT_SET_NO":999,"REV_AT_EPOCH":10462,"BSTAR":0.0001624891,"MEAN_MOTION_DOT":0.00002882,"MEAN_MOTION_DDOT":0},{"OBJECT_NAME":"LEGION 5","OBJECT_ID":"2025-025A","EPOCH":"2026-07-11T23:25:01.800192","CLASSIFICATION_TYPE":"U","MEAN_MOTION":15.1606064,"ECCENTRICITY":0.00084941,"INCLINATION":44.9998,"RA_OF_ASC_NODE":168.4809,"ARG_OF_PERICENTER":286.3935,"MEAN_ANOMALY":73.6009,"EPHEMERIS_TYPE":0,"NORAD_CAT_ID":62900,"ELEMENT_SET_NO":999,"REV_AT_EPOCH":7825,"BSTAR":0.000099950864,"MEAN_MOTION_DOT":0.00001692,"MEAN_MOTION_DDOT":0},{"OBJECT_NAME":"LEGION 6","OBJECT_ID":"2025-025B","EPOCH":"2026-07-10T23:39:08.673120","CLASSIFICATION_TYPE":"U","MEAN_MOTION":15.15671893,"ECCENTRICITY":0.00107838,"INCLINATION":45.0016,"RA_OF_ASC_NODE":82.9268,"ARG_OF_PERICENTER":255.0974,"MEAN_ANOMALY":104.8711,"EPHEMERIS_TYPE":0,"NORAD_CAT_ID":62901,"ELEMENT_SET_NO":999,"REV_AT_EPOCH":7924,"BSTAR":0.00010954381,"MEAN_MOTION_DOT":0.00001857,"MEAN_MOTION_DDOT":0}]}
