LEGION 1                
1 59625U 24081A   26192.90065751  .00002258  00000+0  11822-3 0  9998
2 59625  97.5015 270.4953 0007692 283.4197  76.6179 15.16830593121285
LEGION 2                
1 59626U 24081B   26192.93099464  .00001961  00000+0  10312-3 0  9993
2 59626  97.5014 270.6221 0010056 246.2581 113.7598 15.16809597121296
LEGION 3                
1 60452U 24146A   26192.64559842  .00002061  00000+0  12017-3 0  9999
2 60452  45.0012 259.4148 0008526 315.1930  44.8259 15.15641977105731
LEGION 4                
1 60453U 24146B   26192.90904367  .00002882  00000+0  16249-3 0  9997
2 60453  45.0028 349.8695 0008938  92.8389 267.3513 15.15665630104628
LEGION 5                
1 62900U 25025A   26192.97571528  .00001692  00000+0  99951-4 0  9999
2 62900  44.9998 168.4809 0008494 286.3935  73.6009 15.16060640 78255
LEGION 6                
1 62901U 25025B   26191.98551705  .00001857  00000+0  10954-3 0  9993
2 62901  45.0016  82.9268 0010783 255.0974 104.8711 15.15671893 79242
